CENTISPACE-1 OBJECT C   
1 68352U 26060C   26110.92127532 -.00000081  00000+0  19117-4 0  9991
2 68352  54.9811 269.3965 0010357  14.8008 345.3292 14.73754101  4321
CENTISPACE-1 OBJECT D   
1 68353U 26060D   26110.44358899 -.00000092  00000+0  17413-4 0  9990
2 68353  54.9832 271.3206 0011664  25.4775 334.6797 14.73839032  4257
CENTISPACE-1 OBJECT E   
1 68354U 26060E   26110.91479418 -.00000092  00000+0  17495-4 0  9994
2 68354  54.9759 269.3470 0013201  16.2884 343.8536 14.74554125  4323
CENTISPACE-1 OBJECT F   
1 68355U 26060F   26110.91997781 -.00000078  00000+0  19681-4 0  9996
2 68355  54.9751 269.3763 0010348  16.7664 343.3675 14.73537752  4326
CENTISPACE-1 OBJECT G   
1 68356U 26060G   26109.96359922 -.00000088  00000+0  18107-4 0  9992
2 68356  54.9857 273.2359 0012603  18.0252 342.1191 14.74097347  4189
CENTISPACE-1 OBJECT H   
1 68357U 26060H   26110.84675858 -.00000095  00000+0  17034-4 0  9997
2 68357  54.9851 269.6499 0012380  19.4701 340.6768 14.74227700  4310
CENTISPACE-1 OBJECT J   
1 68358U 26060J   26108.94903589 -.00000086  00000+0  18351-4 0  9994
2 68358  54.9799 277.3775 0012112  11.1595 348.9671 14.73959088  4031
CENTISPACE-1 OBJECT K   
1 68359U 26060K   26094.64400183  .00000084  00000+0  43131-4 0  9999
2 68359  54.9800 335.6935 0014769 336.0624  23.9687 14.75283234  1920
RASSVET-3 1             
1 68360U 26061A   26110.88709268  .00090852  16884-5  34283-3 0  9995
2 68360  82.2953  76.8459 0019535 328.9157  31.0956 15.87286879  4471
RASSVET-3 2             
1 68361U 26061B   26110.73294949  .00144555  63297-5  45145-3 0  9994
2 68361  82.2980  76.9513 0020885 327.4226  32.5756 15.91031425  4457
RASSVET-3 3             
1 68362U 26061C   26110.85805470  .00119376  39773-5  36087-3 0  9995
2 68362  82.2974  76.8073 0020018 326.6471  33.3539 15.91684550  4475
RASSVET-3 4             
1 68363U 26061D   26110.23018137  .00105447  28530-5  31662-3 0  9991
2 68363  82.2980  77.5263 0020974 328.2163  31.7842 15.91771584  4371
RASSVET-3 5             
1 68364U 26061E   26110.85780915  .00119274  39787-5  35699-3 0  9993
2 68364  82.2967  76.8070 0020774 325.6642  34.3286 15.91848864  4474
RASSVET-3 6             
1 68365U 26061F   26110.22709463  .00092504  19360-5  27655-3 0  9998
2 68365  82.2972  77.5190 0020426 328.8897  31.1164 15.91867010  4376
RASSVET-3 7             
1 68366U 26061G   26110.22860323  .00087147  15873-5  26224-3 0  9995
2 68366  82.2967  77.5211 0020710 328.3382  31.6643 15.91726486  4373
RASSVET-3 8             
1 68367U 26061H   26110.85740419  .00124423  44447-5  36923-3 0  9993
2 68367  82.2976  76.8070 0020297 324.5952  35.3972 15.92033684  4479
