[{"OBJECT_NAME":"CENTISPACE-1 OBJECT C","OBJECT_ID":"2026-060C","EPOCH":"2026-04-20T22:06:38.187648","MEAN_MOTION":14.73754101,"ECCENTRICITY":0.00103577,"INCLINATION":54.9811,"RA_OF_ASC_NODE":269.3965,"ARG_OF_PERICENTER":14.8008,"MEAN_ANOMALY":345.3292,"EPHEMERIS_TYPE":0,"CLASSIFICATION_TYPE":"U","NORAD_CAT_ID":68352,"ELEMENT_SET_NO":999,"REV_AT_EPOCH":432,"BSTAR":1.9116663e-5,"MEAN_MOTION_DOT":-8.1e-7,"MEAN_MOTION_DDOT":0},{"OBJECT_NAME":"CENTISPACE-1 OBJECT D","OBJECT_ID":"2026-060D","EPOCH":"2026-04-20T10:38:46.088736","MEAN_MOTION":14.73839032,"ECCENTRICITY":0.0011664,"INCLINATION":54.9832,"RA_OF_ASC_NODE":271.3206,"ARG_OF_PERICENTER":25.4775,"MEAN_ANOMALY":334.6797,"EPHEMERIS_TYPE":0,"CLASSIFICATION_TYPE":"U","NORAD_CAT_ID":68353,"ELEMENT_SET_NO":999,"REV_AT_EPOCH":425,"BSTAR":1.741331e-5,"MEAN_MOTION_DOT":-9.2e-7,"MEAN_MOTION_DDOT":0},{"OBJECT_NAME":"CENTISPACE-1 OBJECT E","OBJECT_ID":"2026-060E","EPOCH":"2026-04-20T21:57:18.217152","MEAN_MOTION":14.74554125,"ECCENTRICITY":0.0013201,"INCLINATION":54.9759,"RA_OF_ASC_NODE":269.347,"ARG_OF_PERICENTER":16.2884,"MEAN_ANOMALY":343.8536,"EPHEMERIS_TYPE":0,"CLASSIFICATION_TYPE":"U","NORAD_CAT_ID":68354,"ELEMENT_SET_NO":999,"REV_AT_EPOCH":432,"BSTAR":1.749533e-5,"MEAN_MOTION_DOT":-9.2e-7,"MEAN_MOTION_DDOT":0},{"OBJECT_NAME":"CENTISPACE-1 OBJECT F","OBJECT_ID":"2026-060F","EPOCH":"2026-04-20T22:04:46.082784","MEAN_MOTION":14.73537752,"ECCENTRICITY":0.00103483,"INCLINATION":54.9751,"RA_OF_ASC_NODE":269.3763,"ARG_OF_PERICENTER":16.7664,"MEAN_ANOMALY":343.3675,"EPHEMERIS_TYPE":0,"CLASSIFICATION_TYPE":"U","NORAD_CAT_ID":68355,"ELEMENT_SET_NO":999,"REV_AT_EPOCH":432,"BSTAR":1.9681278e-5,"MEAN_MOTION_DOT":-7.8e-7,"MEAN_MOTION_DDOT":0},{"OBJECT_NAME":"CENTISPACE-1 OBJECT G","OBJECT_ID":"2026-060G","EPOCH":"2026-04-19T23:07:34.972608","MEAN_MOTION":14.74097347,"ECCENTRICITY":0.0012603,"INCLINATION":54.9857,"RA_OF_ASC_NODE":273.2359,"ARG_OF_PERICENTER":18.0252,"MEAN_ANOMALY":342.1191,"EPHEMERIS_TYPE":0,"CLASSIFICATION_TYPE":"U","NORAD_CAT_ID":68356,"ELEMENT_SET_NO":999,"REV_AT_EPOCH":418,"BSTAR":1.8107029e-5,"MEAN_MOTION_DOT":-8.8e-7,"MEAN_MOTION_DDOT":0},{"OBJECT_NAME":"CENTISPACE-1 OBJECT H","OBJECT_ID":"2026-060H","EPOCH":"2026-04-20T20:19:19.941312","MEAN_MOTION":14.742277,"ECCENTRICITY":0.001238,"INCLINATION":54.9851,"RA_OF_ASC_NODE":269.6499,"ARG_OF_PERICENTER":19.4701,"MEAN_ANOMALY":340.6768,"EPHEMERIS_TYPE":0,"CLASSIFICATION_TYPE":"U","NORAD_CAT_ID":68357,"ELEMENT_SET_NO":999,"REV_AT_EPOCH":431,"BSTAR":1.7034275e-5,"MEAN_MOTION_DOT":-9.5e-7,"MEAN_MOTION_DDOT":0},{"OBJECT_NAME":"CENTISPACE-1 OBJECT J","OBJECT_ID":"2026-060J","EPOCH":"2026-04-18T22:46:36.700896","MEAN_MOTION":14.73959088,"ECCENTRICITY":0.00121121,"INCLINATION":54.9799,"RA_OF_ASC_NODE":277.3775,"ARG_OF_PERICENTER":11.1595,"MEAN_ANOMALY":348.9671,"EPHEMERIS_TYPE":0,"CLASSIFICATION_TYPE":"U","NORAD_CAT_ID":68358,"ELEMENT_SET_NO":999,"REV_AT_EPOCH":403,"BSTAR":1.8350737e-5,"MEAN_MOTION_DOT":-8.6e-7,"MEAN_MOTION_DDOT":0},{"OBJECT_NAME":"CENTISPACE-1 OBJECT K","OBJECT_ID":"2026-060K","EPOCH":"2026-04-04T15:27:21.758112","MEAN_MOTION":14.75283234,"ECCENTRICITY":0.0014769,"INCLINATION":54.98,"RA_OF_ASC_NODE":335.6935,"ARG_OF_PERICENTER":336.0624,"MEAN_ANOMALY":23.9687,"EPHEMERIS_TYPE":0,"CLASSIFICATION_TYPE":"U","NORAD_CAT_ID":68359,"ELEMENT_SET_NO":999,"REV_AT_EPOCH":192,"BSTAR":4.3130657e-5,"MEAN_MOTION_DOT":8.4e-7,"MEAN_MOTION_DDOT":0},{"OBJECT_NAME":"RASSVET-3 1","OBJECT_ID":"2026-061A","EPOCH":"2026-04-20T21:17:24.807552","MEAN_MOTION":15.87286879,"ECCENTRICITY":0.0019535,"INCLINATION":82.2953,"RA_OF_ASC_NODE":76.8459,"ARG_OF_PERICENTER":328.9157,"MEAN_ANOMALY":31.0956,"EPHEMERIS_TYPE":0,"CLASSIFICATION_TYPE":"U","NORAD_CAT_ID":68360,"ELEMENT_SET_NO":999,"REV_AT_EPOCH":447,"BSTAR":0.00034282692,"MEAN_MOTION_DOT":0.00090852,"MEAN_MOTION_DDOT":1.688432e-6},{"OBJECT_NAME":"RASSVET-3 2","OBJECT_ID":"2026-061B","EPOCH":"2026-04-20T17:35:26.835936","MEAN_MOTION":15.91031425,"ECCENTRICITY":0.00208853,"INCLINATION":82.298,"RA_OF_ASC_NODE":76.9513,"ARG_OF_PERICENTER":327.4226,"MEAN_ANOMALY":32.5756,"EPHEMERIS_TYPE":0,"CLASSIFICATION_TYPE":"U","NORAD_CAT_ID":68361,"ELEMENT_SET_NO":999,"REV_AT_EPOCH":445,"BSTAR":0.00045144916,"MEAN_MOTION_DOT":0.00144555,"MEAN_MOTION_DDOT":6.329698e-6},{"OBJECT_NAME":"RASSVET-3 3","OBJECT_ID":"2026-061C","EPOCH":"2026-04-20T20:35:35.926080","MEAN_MOTION":15.9168455,"ECCENTRICITY":0.00200189,"INCLINATION":82.2974,"RA_OF_ASC_NODE":76.8073,"ARG_OF_PERICENTER":326.6471,"MEAN_ANOMALY":33.3539,"EPHEMERIS_TYPE":0,"CLASSIFICATION_TYPE":"U","NORAD_CAT_ID":68362,"ELEMENT_SET_NO":999,"REV_AT_EPOCH":447,"BSTAR":0.00036086915,"MEAN_MOTION_DOT":0.00119376,"MEAN_MOTION_DDOT":3.977257e-6},{"OBJECT_NAME":"RASSVET-3 4","OBJECT_ID":"2026-061D","EPOCH":"2026-04-20T05:31:27.670368","MEAN_MOTION":15.91771584,"ECCENTRICITY":0.0020974,"INCLINATION":82.298,"RA_OF_ASC_NODE":77.5263,"ARG_OF_PERICENTER":328.2163,"MEAN_ANOMALY":31.7842,"EPHEMERIS_TYPE":0,"CLASSIFICATION_TYPE":"U","NORAD_CAT_ID":68363,"ELEMENT_SET_NO":999,"REV_AT_EPOCH":437,"BSTAR":0.00031662,"MEAN_MOTION_DOT":0.00105447,"MEAN_MOTION_DDOT":2.853e-6},{"OBJECT_NAME":"RASSVET-3 5","OBJECT_ID":"2026-061E","EPOCH":"2026-04-20T20:35:14.710560","MEAN_MOTION":15.91848864,"ECCENTRICITY":0.00207747,"INCLINATION":82.2967,"RA_OF_ASC_NODE":76.807,"ARG_OF_PERICENTER":325.6642,"MEAN_ANOMALY":34.3286,"EPHEMERIS_TYPE":0,"CLASSIFICATION_TYPE":"U","NORAD_CAT_ID":68364,"ELEMENT_SET_NO":999,"REV_AT_EPOCH":447,"BSTAR":0.00035698939,"MEAN_MOTION_DOT":0.00119274,"MEAN_MOTION_DDOT":3.978726e-6},{"OBJECT_NAME":"RASSVET-3 6","OBJECT_ID":"2026-061F","EPOCH":"2026-04-20T05:27:00.976032","MEAN_MOTION":15.9186701,"ECCENTRICITY":0.0020426,"INCLINATION":82.2972,"RA_OF_ASC_NODE":77.519,"ARG_OF_PERICENTER":328.8897,"MEAN_ANOMALY":31.1164,"EPHEMERIS_TYPE":0,"CLASSIFICATION_TYPE":"U","NORAD_CAT_ID":68365,"ELEMENT_SET_NO":999,"REV_AT_EPOCH":437,"BSTAR":0.00027655,"MEAN_MOTION_DOT":0.00092504,"MEAN_MOTION_DDOT":1.936e-6},{"OBJECT_NAME":"RASSVET-3 7","OBJECT_ID":"2026-061G","EPOCH":"2026-04-20T05:29:11.319072","MEAN_MOTION":15.91726486,"ECCENTRICITY":0.002071,"INCLINATION":82.2967,"RA_OF_ASC_NODE":77.5211,"ARG_OF_PERICENTER":328.3382,"MEAN_ANOMALY":31.6643,"EPHEMERIS_TYPE":0,"CLASSIFICATION_TYPE":"U","NORAD_CAT_ID":68366,"ELEMENT_SET_NO":999,"REV_AT_EPOCH":437,"BSTAR":0.00026224,"MEAN_MOTION_DOT":0.00087147,"MEAN_MOTION_DDOT":1.5873e-6},{"OBJECT_NAME":"RASSVET-3 8","OBJECT_ID":"2026-061H","EPOCH":"2026-04-20T20:34:39.722016","MEAN_MOTION":15.92033684,"ECCENTRICITY":0.00202977,"INCLINATION":82.2976,"RA_OF_ASC_NODE":76.807,"ARG_OF_PERICENTER":324.5952,"MEAN_ANOMALY":35.3972,"EPHEMERIS_TYPE":0,"CLASSIFICATION_TYPE":"U","NORAD_CAT_ID":68367,"ELEMENT_SET_NO":999,"REV_AT_EPOCH":447,"BSTAR":0.00036923321,"MEAN_MOTION_DOT":0.00124423,"MEAN_MOTION_DDOT":4.44466e-6}]
